0 NUSAT-33 (ALBANIA-2)
1 55047U 23001AQ  24003.15542727  .00010349  00000-0  41790-3 0  9990
2 55047  97.4060  65.0607 0011464  16.2880 343.8724 15.24900067 55515
0 NUSAT-35 (WILLIAMINA)
1 55048U 23001AR  24003.11251150  .00008957  00000-0  40335-3 0  9990
2 55048  97.4181  64.6290 0012554  38.6239 321.5892 15.21229667 55370
0 ICEYE-X21
1 55049U 23001AS  24003.14245457  .00009945  00000-0  44298-3 0  9997
2 55049  97.4550  65.3148 0012661  38.3759 321.8375 15.21574469 55411
0 UMBRA-04
1 55050U 23001AT  24002.92796351  .00029980  00000-0  12646-2 0  9990
2 55050  97.4533  64.9729 0003185 174.7324 185.3946 15.23244747 55375
0 ION SCV-008
1 55051U 23001AU  24003.15024589  .00010954  00000-0  69031-3 0  9996
2 55051  97.6266  82.3041 0007735 202.3062 157.7832 15.09295937 55204
0 SKYKRAFT-1D
1 55052U 23001AV  24002.86209469  .00013068  00000-0  56889-3 0  9992
2 55052  97.4515  65.1636 0012098  39.0215 321.1892 15.22292770 55381
0 EOSSAT-1
1 55053U 23001AW  24003.15238690  .00004383  00000-0  22713-3 0  9993
2 55053  97.4542  64.1063 0014199  43.2953 316.9393 15.16615258 55331
0 SKYKRAFT-1A
1 55054U 23001AX  24003.12775444  .00003638  00000-0  18955-3 0  9999
2 55054  97.4520  64.0472 0013639  44.2225 316.0096 15.16545934 55336
0 FLOCK 4Y 4
1 55055U 23001AY  24002.69686313  .00011612  00000-0  49231-3 0  9999
2 55055  97.4525  65.6871 0013143  36.1206 324.0915 15.23208540 55405
0 VIGORIDE 5
1 55056U 23001AZ  24003.14704014  .00007376  00000-0  39417-3 0  9997
2 55056  97.4518  64.0715 0013371  41.7379 318.4871 15.15307665 55333
0 FLOCK 4Y 35
1 55057U 23001BA  24002.70968568  .00011496  00000-0  48925-3 0  9997
2 55057  97.4532  65.7353 0012133  41.6753 318.5406 15.23092836 55409
0 SKYKRAFT-1B
1 55058U 23001BB  24002.74164365  .00009630  00000-0  44483-3 0  9997
2 55058  97.4517  64.5651 0012729  41.5333 318.6867 15.20331280 55335
0 ION SCV-007
1 55060U 23001BD  24003.11632789  .00000660  00000-0  10518-3 0  9998
2 55060  98.0235  67.5447 0012458 341.7996  18.2766 14.75211296 54015
0 SKYKRAFT-1C
1 55061U 23001BE  24002.85453120  .00003077  00000-0  16564-3 0  9991
2 55061  97.4526  63.5308 0013862  49.5447 310.6992 15.15500582 55271
0 ICEYE-X27
1 55062U 23001BF  24003.11488991  .00016468  00000-0  72698-3 0  9994
2 55062  97.4559  65.5310 0012898  40.7483 319.4715 15.21752262 55422
0 FLOCK 4Y 20
1 55063U 23001BG  24002.72526061  .00010834  00000-0  46552-3 0  9993
2 55063  97.4554  65.7992 0014044  40.9343 319.2945 15.22760381 55401
0 NUSAT-32 (ALBANIA-1)
1 55064U 23001BH  24003.13574091  .00011210  00000-0  43352-3 0  9990
2 55064  97.3141  63.8602 0013437  31.7362 328.4684 15.26298409 55643
