[{"OBJECT_NAME":"NUSAT-33 (ALBANIA-2)","OBJECT_ID":"2023-001AQ","EPOCH":"2024-01-03T03:43:48.916128","MEAN_MOTION":15.24900067,"ECCENTRICITY":0.0011464,"INCLINATION":97.406,"RA_OF_ASC_NODE":65.0607,"ARG_OF_PERICENTER":16.288,"MEAN_ANOMALY":343.8724,"EPHEMERIS_TYPE":0,"CLASSIFICATION_TYPE":"U","NORAD_CAT_ID":55047,"ELEMENT_SET_NO":999,"REV_AT_EPOCH":5551,"BSTAR":0.0004179,"MEAN_MOTION_DOT":0.00010349,"MEAN_MOTION_DDOT":0},{"OBJECT_NAME":"NUSAT-35 (WILLIAMINA)","OBJECT_ID":"2023-001AR","EPOCH":"2024-01-03T02:42:00.993600","MEAN_MOTION":15.21229667,"ECCENTRICITY":0.0012554,"INCLINATION":97.4181,"RA_OF_ASC_NODE":64.629,"ARG_OF_PERICENTER":38.6239,"MEAN_ANOMALY":321.5892,"EPHEMERIS_TYPE":0,"CLASSIFICATION_TYPE":"U","NORAD_CAT_ID":55048,"ELEMENT_SET_NO":999,"REV_AT_EPOCH":5537,"BSTAR":0.00040335,"MEAN_MOTION_DOT":8.957e-5,"MEAN_MOTION_DDOT":0},{"OBJECT_NAME":"ICEYE-X21","OBJECT_ID":"2023-001AS","EPOCH":"2024-01-03T03:25:08.074848","MEAN_MOTION":15.21574469,"ECCENTRICITY":0.0012661,"INCLINATION":97.455,"RA_OF_ASC_NODE":65.3148,"ARG_OF_PERICENTER":38.3759,"MEAN_ANOMALY":321.8375,"EPHEMERIS_TYPE":0,"CLASSIFICATION_TYPE":"U","NORAD_CAT_ID":55049,"ELEMENT_SET_NO":999,"REV_AT_EPOCH":5541,"BSTAR":0.00044298,"MEAN_MOTION_DOT":9.945e-5,"MEAN_MOTION_DDOT":0},{"OBJECT_NAME":"UMBRA-04","OBJECT_ID":"2023-001AT","EPOCH":"2024-01-02T22:16:16.047264","MEAN_MOTION":15.23244747,"ECCENTRICITY":0.0003185,"INCLINATION":97.4533,"RA_OF_ASC_NODE":64.9729,"ARG_OF_PERICENTER":174.7324,"MEAN_ANOMALY":185.3946,"EPHEMERIS_TYPE":0,"CLASSIFICATION_TYPE":"U","NORAD_CAT_ID":55050,"ELEMENT_SET_NO":999,"REV_AT_EPOCH":5537,"BSTAR":0.0012646,"MEAN_MOTION_DOT":0.0002998,"MEAN_MOTION_DDOT":0},{"OBJECT_NAME":"ION SCV-008","OBJECT_ID":"2023-001AU","EPOCH":"2024-01-03T03:36:21.244896","MEAN_MOTION":15.09295937,"ECCENTRICITY":0.0007735,"INCLINATION":97.6266,"RA_OF_ASC_NODE":82.3041,"ARG_OF_PERICENTER":202.3062,"MEAN_ANOMALY":157.7832,"EPHEMERIS_TYPE":0,"CLASSIFICATION_TYPE":"U","NORAD_CAT_ID":55051,"ELEMENT_SET_NO":999,"REV_AT_EPOCH":5520,"BSTAR":0.00069031,"MEAN_MOTION_DOT":0.00010954,"MEAN_MOTION_DDOT":0},{"OBJECT_NAME":"SKYKRAFT-1D","OBJECT_ID":"2023-001AV","EPOCH":"2024-01-02T20:41:24.981216","MEAN_MOTION":15.2229277,"ECCENTRICITY":0.0012098,"INCLINATION":97.4515,"RA_OF_ASC_NODE":65.1636,"ARG_OF_PERICENTER":39.0215,"MEAN_ANOMALY":321.1892,"EPHEMERIS_TYPE":0,"CLASSIFICATION_TYPE":"U","NORAD_CAT_ID":55052,"ELEMENT_SET_NO":999,"REV_AT_EPOCH":5538,"BSTAR":0.00056889,"MEAN_MOTION_DOT":0.00013068,"MEAN_MOTION_DDOT":0},{"OBJECT_NAME":"EOSSAT-1","OBJECT_ID":"2023-001AW","EPOCH":"2024-01-03T03:39:26.228160","MEAN_MOTION":15.16615258,"ECCENTRICITY":0.0014199,"INCLINATION":97.4542,"RA_OF_ASC_NODE":64.1063,"ARG_OF_PERICENTER":43.2953,"MEAN_ANOMALY":316.9393,"EPHEMERIS_TYPE":0,"CLASSIFICATION_TYPE":"U","NORAD_CAT_ID":55053,"ELEMENT_SET_NO":999,"REV_AT_EPOCH":5533,"BSTAR":0.00022713,"MEAN_MOTION_DOT":4.383e-5,"MEAN_MOTION_DDOT":0},{"OBJECT_NAME":"SKYKRAFT-1A","OBJECT_ID":"2023-001AX","EPOCH":"2024-01-03T03:03:57.983616","MEAN_MOTION":15.16545934,"ECCENTRICITY":0.0013639,"INCLINATION":97.452,"RA_OF_ASC_NODE":64.0472,"ARG_OF_PERICENTER":44.2225,"MEAN_ANOMALY":316.0096,"EPHEMERIS_TYPE":0,"CLASSIFICATION_TYPE":"U","NORAD_CAT_ID":55054,"ELEMENT_SET_NO":999,"REV_AT_EPOCH":5533,"BSTAR":0.00018955,"MEAN_MOTION_DOT":3.638e-5,"MEAN_MOTION_DDOT":0},{"OBJECT_NAME":"FLOCK 4Y-4","OBJECT_ID":"2023-001AY","EPOCH":"2024-01-02T16:43:28.974432","MEAN_MOTION":15.2320854,"ECCENTRICITY":0.0013143,"INCLINATION":97.4525,"RA_OF_ASC_NODE":65.6871,"ARG_OF_PERICENTER":36.1206,"MEAN_ANOMALY":324.0915,"EPHEMERIS_TYPE":0,"CLASSIFICATION_TYPE":"U","NORAD_CAT_ID":55055,"ELEMENT_SET_NO":999,"REV_AT_EPOCH":5540,"BSTAR":0.00049231,"MEAN_MOTION_DOT":0.00011612,"MEAN_MOTION_DDOT":0},{"OBJECT_NAME":"VIGORIDE-5","OBJECT_ID":"2023-001AZ","EPOCH":"2024-01-03T03:31:44.268096","MEAN_MOTION":15.15307665,"ECCENTRICITY":0.0013371,"INCLINATION":97.4518,"RA_OF_ASC_NODE":64.0715,"ARG_OF_PERICENTER":41.7379,"MEAN_ANOMALY":318.4871,"EPHEMERIS_TYPE":0,"CLASSIFICATION_TYPE":"U","NORAD_CAT_ID":55056,"ELEMENT_SET_NO":999,"REV_AT_EPOCH":5533,"BSTAR":0.00039417,"MEAN_MOTION_DOT":7.376e-5,"MEAN_MOTION_DDOT":0},{"OBJECT_NAME":"FLOCK 4Y-35","OBJECT_ID":"2023-001BA","EPOCH":"2024-01-02T17:01:56.842752","MEAN_MOTION":15.23092836,"ECCENTRICITY":0.0012133,"INCLINATION":97.4532,"RA_OF_ASC_NODE":65.7353,"ARG_OF_PERICENTER":41.6753,"MEAN_ANOMALY":318.5406,"EPHEMERIS_TYPE":0,"CLASSIFICATION_TYPE":"U","NORAD_CAT_ID":55057,"ELEMENT_SET_NO":999,"REV_AT_EPOCH":5540,"BSTAR":0.00048925,"MEAN_MOTION_DOT":0.00011496,"MEAN_MOTION_DDOT":0},{"OBJECT_NAME":"SKYKRAFT-1B","OBJECT_ID":"2023-001BB","EPOCH":"2024-01-02T17:47:58.011360","MEAN_MOTION":15.2033128,"ECCENTRICITY":0.0012729,"INCLINATION":97.4517,"RA_OF_ASC_NODE":64.5651,"ARG_OF_PERICENTER":41.5333,"MEAN_ANOMALY":318.6867,"EPHEMERIS_TYPE":0,"CLASSIFICATION_TYPE":"U","NORAD_CAT_ID":55058,"ELEMENT_SET_NO":999,"REV_AT_EPOCH":5533,"BSTAR":0.00044483,"MEAN_MOTION_DOT":9.63e-5,"MEAN_MOTION_DDOT":0},{"OBJECT_NAME":"ION SCV-007","OBJECT_ID":"2023-001BD","EPOCH":"2024-01-03T02:47:30.729696","MEAN_MOTION":14.75211296,"ECCENTRICITY":0.0012458,"INCLINATION":98.0235,"RA_OF_ASC_NODE":67.5447,"ARG_OF_PERICENTER":341.7996,"MEAN_ANOMALY":18.2766,"EPHEMERIS_TYPE":0,"CLASSIFICATION_TYPE":"U","NORAD_CAT_ID":55060,"ELEMENT_SET_NO":999,"REV_AT_EPOCH":5401,"BSTAR":0.00010518,"MEAN_MOTION_DOT":6.6e-6,"MEAN_MOTION_DDOT":0},{"OBJECT_NAME":"SKYKRAFT-1C","OBJECT_ID":"2023-001BE","EPOCH":"2024-01-02T20:30:31.495680","MEAN_MOTION":15.15500582,"ECCENTRICITY":0.0013862,"INCLINATION":97.4526,"RA_OF_ASC_NODE":63.5308,"ARG_OF_PERICENTER":49.5447,"MEAN_ANOMALY":310.6992,"EPHEMERIS_TYPE":0,"CLASSIFICATION_TYPE":"U","NORAD_CAT_ID":55061,"ELEMENT_SET_NO":999,"REV_AT_EPOCH":5527,"BSTAR":0.00016564,"MEAN_MOTION_DOT":3.077e-5,"MEAN_MOTION_DDOT":0},{"OBJECT_NAME":"ICEYE-X27","OBJECT_ID":"2023-001BF","EPOCH":"2024-01-03T02:45:26.488224","MEAN_MOTION":15.21752262,"ECCENTRICITY":0.0012898,"INCLINATION":97.4559,"RA_OF_ASC_NODE":65.531,"ARG_OF_PERICENTER":40.7483,"MEAN_ANOMALY":319.4715,"EPHEMERIS_TYPE":0,"CLASSIFICATION_TYPE":"U","NORAD_CAT_ID":55062,"ELEMENT_SET_NO":999,"REV_AT_EPOCH":5542,"BSTAR":0.00072698,"MEAN_MOTION_DOT":0.00016468,"MEAN_MOTION_DDOT":0},{"OBJECT_NAME":"FLOCK 4Y-20","OBJECT_ID":"2023-001BG","EPOCH":"2024-01-02T17:24:22.516704","MEAN_MOTION":15.22760381,"ECCENTRICITY":0.0014044,"INCLINATION":97.4554,"RA_OF_ASC_NODE":65.7992,"ARG_OF_PERICENTER":40.9343,"MEAN_ANOMALY":319.2945,"EPHEMERIS_TYPE":0,"CLASSIFICATION_TYPE":"U","NORAD_CAT_ID":55063,"ELEMENT_SET_NO":999,"REV_AT_EPOCH":5540,"BSTAR":0.00046552,"MEAN_MOTION_DOT":0.00010834,"MEAN_MOTION_DDOT":0},{"OBJECT_NAME":"NUSAT-32 (ALBANIA-1)","OBJECT_ID":"2023-001BH","EPOCH":"2024-01-03T03:15:28.014624","MEAN_MOTION":15.26298409,"ECCENTRICITY":0.0013437,"INCLINATION":97.3141,"RA_OF_ASC_NODE":63.8602,"ARG_OF_PERICENTER":31.7362,"MEAN_ANOMALY":328.4684,"EPHEMERIS_TYPE":0,"CLASSIFICATION_TYPE":"U","NORAD_CAT_ID":55064,"ELEMENT_SET_NO":999,"REV_AT_EPOCH":5564,"BSTAR":0.00043352,"MEAN_MOTION_DOT":0.0001121,"MEAN_MOTION_DDOT":0}]
